NUSAT-49 (KLARA DAN VO*)
1 60500U 24149AJ  26068.79810190  .00012912  00000+0  43568-3 0  9991
2 60500  97.3807 150.7380 0001132 286.7761  73.3356 15.30828857 86935
STARLINK-34502          
1 64680U 25139S   26068.53702316  .00023331  00000+0  79722-3 0  9994
2 64680  53.1590 127.5402 0001367  86.7466 273.3692 15.30205846 40262
